[{"OBJECT_NAME":"STARLINK-5400","OBJECT_ID":"2022-177AT","EPOCH":"2026-03-09T22:00:01.999584","MEAN_MOTION":15.13157782,"ECCENTRICITY":0.00021638,"INCLINATION":43.0004,"RA_OF_ASC_NODE":118.7368,"ARG_OF_PERICENTER":271.0289,"MEAN_ANOMALY":86.7671,"EPHEMERIS_TYPE":0,"CLASSIFICATION_TYPE":"U","NORAD_CAT_ID":54861,"ELEMENT_SET_NO":999,"REV_AT_EPOCH":567,"BSTAR":0.0017144311,"MEAN_MOTION_DOT":0.00030851,"MEAN_MOTION_DDOT":0},{"OBJECT_NAME":"FENGYUN 1C DEB","OBJECT_ID":"1999-025ARC","EPOCH":"2026-03-09T09:52:34.584960","MEAN_MOTION":14.8862073,"ECCENTRICITY":0.01277475,"INCLINATION":99.058,"RA_OF_ASC_NODE":51.7347,"ARG_OF_PERICENTER":19.4756,"MEAN_ANOMALY":341.1273,"EPHEMERIS_TYPE":0,"CLASSIFICATION_TYPE":"U","NORAD_CAT_ID":30694,"ELEMENT_SET_NO":999,"REV_AT_EPOCH":1384,"BSTAR":0.0015651053,"MEAN_MOTION_DOT":0.00016942,"MEAN_MOTION_DDOT":0}]
